OBJECT_NAME,OBJECT_ID,EPOCH,MEAN_MOTION,ECCENTRICITY,INCLINATION,RA_OF_ASC_NODE,ARG_OF_PERICENTER,MEAN_ANOMALY,EPHEMERIS_TYPE,CLASSIFICATION_TYPE,NORAD_CAT_ID,ELEMENT_SET_NO,REV_AT_EPOCH,BSTAR,MEAN_MOTION_DOT,MEAN_MOTION_DDOT
STARLINK-1433,2020-035BG,2026-06-12T05:48:46.232064,15.69242613,.00044177,53.0430,278.2666,103.1266,257.0243,0,U,45711,999,33415,.53057292E-3,.62973E-3,0
STARLINK-1434,2020-035BH,2026-06-12T02:26:08.299680,15.34819721,.00011765,53.0508,299.9403,46.8805,313.2295,0,U,45712,999,33385,.1246475E-2,.42548E-3,0
HAIYANG-1D,2020-036A,2026-06-12T07:10:10.375680,14.34173231,.00031093,98.4549,105.0843,138.7690,221.3731,0,U,45721,999,31427,.18956737E-3,.488E-5,0
ANDESITE,2020-037D,2026-06-12T01:15:01.678464,15.05664556,.00090109,97.7857,355.9473,176.5713,183.5577,0,U,45726,999,32489,.14101797E-3,.1974E-4,0
M2 PATHFINDER,2020-037E,2026-06-12T06:12:37.120608,15.04657894,.0012066,97.8155,354.4355,161.7427,198.4235,0,U,45727,999,32475,.17181251E-3,.2355E-4,0
STARLINK-1465,2020-038B,2026-06-12T04:37:00.914880,15.68914699,.00013712,53.0428,124.1094,105.4395,254.6773,0,U,45731,999,33111,.53989345E-3,.63201E-3,0
STARLINK-1471,2020-038F,2026-06-11T23:01:40.228896,15.53754780,.0002728,53.0458,48.6809,129.8925,230.2324,0,U,45735,999,33216,.40639631E-3,.26118E-3,0
STARLINK-1480,2020-038M,2026-06-12T02:56:03.541344,15.65750871,.00063944,53.0466,118.2611,47.7598,312.3959,0,U,45741,999,33120,.46556698E-3,.47762E-3,0
STARLINK-1500,2020-038Q,2026-06-12T03:30:42.748704,15.39424017,.00019208,53.0338,108.0333,128.9599,231.1576,0,U,45744,999,33134,.61389796E-3,.24078E-3,0
STARLINK-1504,2020-038S,2026-06-11T23:00:21.909888,15.59360625,.00031555,53.0205,45.2359,117.2936,242.8397,0,U,45746,999,33219,.4300854E-3,.34192E-3,0
STARLINK-1506,2020-038T,2026-06-12T05:04:10.820640,15.28383818,.00017008,53.0753,124.3264,162.4537,197.6521,0,U,45747,999,33113,.27444803E-3,.7342E-4,0
STARLINK-1464,2020-038X,2026-06-12T02:43:36.510528,15.54386768,.00047116,53.0453,111.7319,53.1010,307.0431,0,U,45751,999,33129,.41462881E-3,.27296E-3,0
STARLINK-1477,2020-038AA,2026-06-12T06:05:24.431136,15.19133903,.00014654,53.0449,141.5396,10.2840,349.8184,0,U,45754,999,33088,.11910902E-2,.251E-3,0
STARLINK-1478,2020-038AB,2026-06-12T02:12:38.444832,15.68926681,.00045345,53.0441,96.1371,91.0434,269.1101,0,U,45755,999,33149,.48393819E-3,.56596E-3,0
STARLINK-1493,2020-038AF,2026-06-12T06:02:58.581024,15.65501660,.00066968,53.0452,105.1471,45.2400,314.9159,0,U,45759,999,33138,.56608369E-3,.57689E-3,0
STARLINK-1502,2020-038AL,2026-06-12T02:54:13.749408,15.62524877,.000559,53.0437,109.6952,19.0725,341.0496,0,U,45764,999,33132,.72984045E-3,.66281E-3,0
STARLINK-1470,2020-038AU,2026-06-12T01:49:39.057600,15.35648996,.00039486,53.0427,93.5605,52.5618,307.5742,0,U,45772,999,33154,.12182791E-2,.42707E-3,0
STARLINK-1482,2020-038AV,2026-06-12T03:27:36.573984,15.38218270,.00048602,53.1547,109.6406,46.2968,313.8439,0,U,45773,999,33134,.12439005E-2,.47441E-3,0
STARLINK-1496,2020-038BC,2026-06-12T00:17:53.185632,15.69168499,.00005918,53.0460,80.5479,155.7882,204.3162,0,U,45780,999,33170,.47005427E-3,.5548E-3,0
STARLINK-1513,2020-038BJ,2026-06-12T03:27:05.433696,15.31702647,.00012577,53.1602,111.7986,90.8956,269.2190,0,U,45786,999,33131,.5878756E-5,-.183E-5,0
GAOFEN-9 03,2020-039A,2026-06-12T07:49:33.212640,15.32361846,.00128987,97.5373,297.1224,99.4123,260.8577,0,U,45794,999,33301,.24542827E-3,.7607E-4,0
BEIDOU-3 G3,2020-040A,2026-06-12T06:52:38.722656,1.00269432,.00025761,2.4338,67.4388,337.6059,69.3021,0,U,45807,999,2202,0,-.34E-5,0
NAVSTAR 79 (USA 304),2020-041A,2026-06-10T12:13:09.899040,2.00558723,.0063583,56.6651,29.2031,204.6446,339.4563,0,U,45854,999,4390,0,-.64E-6,0
GAOFEN DUOMO (GFDM),2020-042A,2026-06-12T06:16:38.789184,14.76872914,.00124676,97.7751,223.3266,88.8224,271.4415,0,U,45856,999,32028,.85239601E-4,.55E-5,0
SHIYAN-6 02 (SY-6 02),2020-043A,2026-06-12T07:10:09.901344,14.60930637,.01276329,98.1844,174.6618,241.5928,117.2360,0,U,45859,999,31614,.47418219E-4,.205E-5,0
APSTAR-6D,2020-045A,2026-06-09T16:33:34.992576,1.00268962,.00021036,0.0502,104.3507,344.4035,191.7177,0,U,45863,999,2178,0,-.301E-5,0
KOREASAT 116,2020-048A,2026-06-12T06:54:31.042656,1.00270577,.0000764,0.0108,329.7407,110.9321,39.8012,0,U,45920,999,2159,0,-.347E-5,0
ZIYUAN 3-03 (ZY 3-03),2020-051A,2026-06-12T06:02:12.120288,15.21494213,.00037411,97.2842,231.1363,342.0594,18.0509,0,U,45939,999,32659,.20167156E-3,.447E-4,0
EXPRESS 103,2020-053A,2026-06-12T03:23:30.884352,1.00271474,.00003202,0.0116,279.7560,129.0645,359.0502,0,U,45985,999,2159,0,-.265E-5,0
