STARLINK-1433           
1 45711U 20035BG  26163.24220176  .00062973  00000+0  53057-3 0  9999
2 45711  53.0430 278.2666 0004417 103.1266 257.0243 15.69242613334155
STARLINK-1434           
1 45712U 20035BH  26163.10148495  .00042548  00000+0  12465-2 0  9991
2 45712  53.0508 299.9403 0001176  46.8805 313.2295 15.34819721333852
HAIYANG-1D              
1 45721U 20036A   26163.29873120  .00000488  00000+0  18957-3 0  9992
2 45721  98.4549 105.0843 0003109 138.7690 221.3731 14.34173231314273
ANDESITE                
1 45726U 20037D   26163.05210276  .00001974  00000+0  14102-3 0  9998
2 45726  97.7857 355.9473 0009010 176.5713 183.5577 15.05664556324890
M2 PATHFINDER           
1 45727U 20037E   26163.25876297  .00002355  00000+0  17181-3 0  9996
2 45727  97.8155 354.4355 0012066 161.7427 198.4235 15.04657894324756
STARLINK-1465           
1 45731U 20038B   26163.19237170  .00063201  00000+0  53989-3 0  9999
2 45731  53.0428 124.1094 0001371 105.4395 254.6773 15.68914699331115
STARLINK-1471           
1 45735U 20038F   26162.95949339  .00026118  00000+0  40640-3 0  9999
2 45735  53.0458  48.6809 0002728 129.8925 230.2324 15.53754780332167
STARLINK-1480           
1 45741U 20038M   26163.12226321  .00047762  00000+0  46557-3 0  9996
2 45741  53.0466 118.2611 0006394  47.7598 312.3959 15.65750871331205
STARLINK-1500           
1 45744U 20038Q   26163.14632811  .00024078  00000+0  61390-3 0  9993
2 45744  53.0338 108.0333 0001920 128.9599 231.1576 15.39424017331346
STARLINK-1504           
1 45746U 20038S   26162.95858692  .00034192  00000+0  43009-3 0  9995
2 45746  53.0205  45.2359 0003155 117.2936 242.8397 15.59360625332199
STARLINK-1506           
1 45747U 20038T   26163.21123635  .00007342  00000+0  27445-3 0  9991
2 45747  53.0753 124.3264 0001700 162.4537 197.6521 15.28383818331139
STARLINK-1464           
1 45751U 20038X   26163.11361702  .00027296  00000+0  41463-3 0  9990
2 45751  53.0453 111.7319 0004711  53.1010 307.0431 15.54386768331299
STARLINK-1477           
1 45754U 20038AA  26163.25375499  .00025100  00000+0  11911-2 0  9992
2 45754  53.0449 141.5396 0001465  10.2840 349.8184 15.19133903330886
STARLINK-1478           
1 45755U 20038AB  26163.09211163  .00056596  00000+0  48394-3 0  9991
2 45755  53.0441  96.1371 0004534  91.0434 269.1101 15.68926681331491
STARLINK-1493           
1 45759U 20038AF  26163.25206691  .00057689  00000+0  56608-3 0  9994
2 45759  53.0452 105.1471 0006696  45.2400 314.9159 15.65501660331387
STARLINK-1502           
1 45764U 20038AL  26163.12099247  .00066281  00000+0  72984-3 0  9996
2 45764  53.0437 109.6952 0005590  19.0725 341.0496 15.62524877331321
STARLINK-1470           
1 45772U 20038AU  26163.07614650  .00042707  00000+0  12183-2 0  9991
2 45772  53.0427  93.5605 0003948  52.5618 307.5742 15.35648996331547
STARLINK-1482           
1 45773U 20038AV  26163.14417331  .00047441  00000+0  12439-2 0  9991
2 45773  53.1547 109.6406 0004860  46.2968 313.8439 15.38218270331344
STARLINK-1496           
1 45780U 20038BC  26163.01242113  .00055480  00000+0  47005-3 0  9999
2 45780  53.0460  80.5479 0000591 155.7882 204.3162 15.69168499331708
STARLINK-1513           
1 45786U 20038BJ  26163.14381289 -.00000183  00000+0  58788-5 0  9990
2 45786  53.1602 111.7986 0001257  90.8956 269.2190 15.31702647331310
GAOFEN-9 03             
1 45794U 20039A   26163.32607885  .00007607  00000+0  24543-3 0  9990
2 45794  97.5373 297.1224 0012898  99.4123 260.8577 15.32361846333012
BEIDOU-3 G3             
1 45807U 20040A   26163.28655929 -.00000340  00000+0  00000+0 0  9990
2 45807   2.4338  67.4388 0002576 337.6059  69.3021  1.00269432 22029
NAVSTAR 79 (USA 304)    
1 45854U 20041A   26161.50914235 -.00000064  00000+0  00000+0 0  9997
2 45854  56.6651  29.2031 0063583 204.6446 339.4563  2.00558723 43906
GAOFEN DUOMO (GFDM)     
1 45856U 20042A   26163.26156006  .00000550  00000+0  85240-4 0  9992
2 45856  97.7751 223.3266 0012467  88.8224 271.4415 14.76872914320280
SHIYAN-6 02 (SY-6 02)   
1 45859U 20043A   26163.29872571  .00000205  00000+0  47418-4 0  9993
2 45859  98.1844 174.6618 0127632 241.5928 117.2360 14.60930637316146
APSTAR-6D               
1 45863U 20045A   26160.68998834 -.00000301  00000+0  00000+0 0  9990
2 45863   0.0502 104.3507 0002103 344.4035 191.7177  1.00268962 21789
KOREASAT 116            
1 45920U 20048A   26163.28785929 -.00000347  00000+0  00000+0 0  9995
2 45920   0.0108 329.7407 0000764 110.9321  39.8012  1.00270577 21596
ZIYUAN 3-03 (ZY 3-03)   
1 45939U 20051A   26163.25152917  .00004470  00000+0  20167-3 0  9991
2 45939  97.2842 231.1363 0003741 342.0594  18.0509 15.21494213326595
EXPRESS 103             
1 45985U 20053A   26163.14132968 -.00000265  00000+0  00000+0 0  9995
2 45985   0.0116 279.7560 0000320 129.0645 359.0502  1.00271474 21596
